Newsgroups: comp.sources.x
Path: uunet!think.com!mips!msi!dcmartin
From: e_downey@hwking.cca.cr.rockwell.com (Elwood Downey)
Subject: v16i128: xephem - astronomical ephemeris program., Part17/24
Message-ID: <1992Mar6.135611.2822@msi.com>
Originator: dcmartin@fascet
Sender: dcmartin@msi.com (David C. Martin - Moderator)
Organization: Molecular Simulations, Inc.
References: <csx-16i112-xephem@uunet.UU.NET>
Date: Fri, 6 Mar 1992 13:56:11 GMT
Approved: dcmartin@msi.com

Submitted-by: e_downey@hwking.cca.cr.rockwell.com (Elwood Downey)
Posting-number: Volume 16, Issue 128
Archive-name: xephem/part17

# this is part.17 (part 17 of a multipart archive)
# do not concatenate these parts, unpack them in order with /bin/sh
# file ephem.db continued
#
if test ! -r _shar_seq_.tmp; then
	echo 'Please unpack part 1 first!'
	exit 1
fi
(read Scheck
 if test "$Scheck" != 17; then
	echo Please unpack part "$Scheck" next!
	exit 1
 else
	exit 0
 fi
) < _shar_seq_.tmp || exit 1
if test ! -f _shar_wnt_.tmp; then
	echo 'x - still skipping ephem.db'
else
echo 'x - continuing file ephem.db'
sed 's/^X//' << 'SHAR_EOF' >> 'ephem.db' &&
Lohja,e,3.32166,10.79762,227.53423,2.4215958,0.26154811,0.1958604,296.92549,11/5/1990,1950.0,12.15,0.25
Lohmann,e,5.00281,144.70264,168.76599,2.1979205,0.30247265,0.2107219,241.05719,11/5/1990,1950.0,13.50,0.25
Lois,e,2.93363,123.07070,214.71350,2.4033464,0.26453279,0.2269994,42.40180,11/5/1990,1950.0,14.40,0.25
Lola,e,13.55465,36.11812,329.39640,2.3994409,0.26517891,0.2203213,100.30337,11/5/1990,1950.0,11.73,0.25
Lomia,e,14.92701,348.52662,57.64898,2.9908842,0.19054812,0.0220968,321.32594,11/5/1990,1950.0,8.18,0.48
Lomonosowa,e,15.58197,169.34207,30.81267,2.5251553,0.24562464,0.0883010,202.37514,11/5/1990,1950.0,10.96,0.15
Lonnrot,e,6.84390,22.07426,303.15101,2.2477429,0.29247189,0.1970590,231.85381,11/5/1990,1950.0,12.90,0.25
Lorbach,e,10.70231,156.81268,335.34492,3.0907216,0.18139037,0.0450824,250.36164,11/5/1990,1950.0,10.81,0.25
Lorcia,e,9.82463,202.19639,273.23614,3.0126515,0.18848671,0.0586515,219.98668,11/5/1990,1950.0,11.06,0.25
Loreley,e,11.24281,302.34663,352.19114,3.1293528,0.17804193,0.0748155,245.75369,11/5/1990,1950.0,7.49,0.15
Loretta,e,0.90875,40.11169,193.78598,3.1227258,0.17860898,0.1272815,68.78409,11/5/1990,1950.0,10.70,0.25
Lorraine,e,10.73334,195.38131,204.38293,3.0884680,0.18158895,0.0839825,161.19564,11/5/1990,1950.0,9.72,0.15
Losaka,e,15.96430,101.46409,277.80021,2.6670109,0.22629080,0.2257364,283.78316,11/5/1990,1950.0,10.96,0.25
Lossignol,e,2.28732,71.33629,166.36564,3.2192547,0.17063615,0.1353927,290.41749,11/5/1990,1950.0,12.50,0.25
Lotis,e,9.50417,219.66933,168.20635,2.6078449,0.23403533,0.1217305,48.38056,11/5/1990,1950.0,9.77,0.15
Lottie,e,6.32610,17.78667,45.80724,2.4084047,0.26369984,0.0968517,77.60044,11/5/1990,1950.0,13.40,0.25
Louise,e,2.79174,126.02998,345.22323,2.1627375,0.30988343,0.0373081,44.58101,11/5/1990,1950.0,13.70,0.25
Louispharailda,e,10.48817,337.10583,83.07208,2.7326594,0.21818547,0.2518399,140.98261,11/5/1990,1950.0,12.80,0.25
Lova,e,5.83500,115.57185,286.18215,2.7039586,0.22166852,0.1461141,350.41694,11/5/1990,1950.0,10.17,0.15
Loviisa,e,5.17405,45.32653,81.73436,2.2122593,0.29953668,0.0752631,37.41423,11/5/1990,1950.0,12.85,0.25
Lowe,e,12.23043,49.46032,200.72820,3.1858431,0.17332751,0.1129218,21.38006,11/5/1990,1950.0,10.90,0.25
Lowell,e,14.92079,81.97471,216.73658,2.6254509,0.23168516,0.1593851,235.46684,11/5/1990,1950.0,11.60,0.25
Loyola,e,4.46579,110.91977,286.19204,2.2457190,0.29286736,0.1641604,75.37995,11/5/1990,1950.0,13.60,0.25
Luanda,e,14.03284,117.37331,222.98854,2.6189456,0.23254893,0.1833324,175.73423,11/5/1990,1950.0,11.40,0.25
Lubarsky,e,3.59961,152.80309,241.17190,2.2524654,0.29155257,0.1315225,301.76956,11/5/1990,1950.0,13.85,0.25
Lubos Perek,e,10.16084,17.51150,285.83104,3.0226666,0.18755071,0.1055797,24.82266,11/5/1990,1950.0,12.90,0.25
Luce,e,2.15507,271.26165,239.17052,2.5412657,0.24329264,0.0596076,247.06208,11/5/1990,1950.0,11.41,0.15
Lucerna,e,9.55567,199.70380,197.83901,2.6275623,0.23140596,0.2260039,338.58184,11/5/1990,1950.0,13.30,0.25
Lucia,e,2.15999,79.96677,179.65374,3.1283635,0.17812639,0.1469835,121.12703,11/5/1990,1950.0,9.42,0.15
Lucidor,e,6.64341,271.96519,154.41952,2.6926772,0.22306305,0.1428810,200.16877,11/5/1990,1950.0,11.10,0.25
Lucienne,e,13.98818,315.22025,92.83834,2.4615550,0.25520534,0.0895376,298.98420,11/5/1990,1950.0,12.28,0.25
Lucifer,e,14.08670,318.21678,340.82400,2.9021465,0.19935405,0.1424775,175.97468,11/5/1990,1950.0,11.20,0.25
Lucina,e,13.08763,83.69769,145.00573,2.7194664,0.21977512,0.0635945,293.46542,11/5/1990,1950.0,8.15,0.13
Lucretia,e,5.30385,30.94898,16.11770,2.1874833,0.30464001,0.1322689,179.51784,11/5/1990,1950.0,12.08,0.40
Luda,e,14.87207,344.38972,55.50573,2.5646086,0.23997855,0.1116743,272.29090,11/5/1990,1950.0,11.03,0.25
Ludmilla,e,9.76639,262.99717,150.98619,2.7713563,0.21363162,0.2016106,250.37480,11/5/1990,1950.0,8.05,0.25
Ludovica,e,14.93586,43.10162,284.77190,2.5286336,0.24511800,0.0336642,246.01300,11/5/1990,1950.0,10.28,0.15
Lugano,e,10.24140,265.01703,254.39439,2.6732814,0.22549507,0.1403795,244.47448,11/5/1990,1950.0,11.20,0.25
Lugduna,e,5.37363,57.85377,306.00455,2.1861645,0.30491573,0.1872093,319.46698,11/5/1990,1950.0,12.30,0.25
Luisa,e,16.63629,44.30019,292.52935,2.7712675,0.21364188,0.2949217,27.48791,11/5/1990,1950.0,8.48,0.25
Lumen,e,11.90836,318.40857,56.81234,2.6662830,0.22638347,0.2142944,325.35958,11/5/1990,1950.0,8.56,0.15
Lumiere,e,9.28458,297.57048,172.90590,3.0117261,0.18857359,0.0699467,256.02213,11/5/1990,1950.0,10.44,0.25
Lumme,e,11.72295,95.31300,209.64537,3.0122745,0.18852210,0.0909826,56.81910,11/5/1990,1950.0,11.29,0.25
Lunacharsky,e,3.31708,21.84413,250.10985,2.3550462,0.27271243,0.1608828,180.47412,11/5/1990,1950.0,12.99,0.25
Lunaria,e,10.55276,289.50890,114.42547,2.8720550,0.20249530,0.1910821,37.77380,11/5/1990,1950.0,10.83,0.15
Lundia,e,7.14980,154.10488,195.71588,2.2827075,0.28577792,0.1928973,271.66367,11/5/1990,1950.0,12.08,0.25
Lundmarka,e,11.44263,133.05298,127.78425,2.9131573,0.19822489,0.0935987,147.36931,11/5/1990,1950.0,10.01,0.15
Lunn,e,2.33797,136.55192,24.01953,3.1138390,0.17937414,0.1205377,315.03994,11/5/1990,1950.0,12.17,0.15
Lupishko,e,13.65350,128.05050,8.71136,3.1106905,0.17964655,0.0556065,36.94780,11/5/1990,1950.0,11.28,0.15
Luscinia,e,10.15821,218.84481,127.55390,3.3925910,0.15772728,0.1691500,98.61195,11/5/1990,1950.0,8.90,0.15
Lutetia,e,3.06654,80.42041,249.98912,2.4369395,0.25908183,0.1615884,167.25533,11/5/1990,1950.0,7.33,0.16
Luthera,e,19.53270,71.74794,100.56893,3.2160449,0.17089168,0.1229077,326.44834,11/5/1990,1950.0,9.30,0.25
Luyten,e,2.37009,238.25102,162.54261,2.4667119,0.25440547,0.1927220,255.54532,11/5/1990,1950.0,13.40,0.25
Luznice,e,7.80248,45.56624,1.62569,3.0027047,0.18942406,0.0697797,135.12588,11/5/1990,1950.0,11.70,0.25
Lyalya,e,2.62638,115.58260,185.58652,3.1793486,0.17385887,0.1361888,128.13628,11/5/1990,1950.0,11.90,0.25
Lydia,e,5.96628,56.65192,281.76946,2.7333018,0.21810855,0.0782171,99.46269,11/5/1990,1950.0,7.79,0.18
Lydina,e,9.47546,63.88192,19.06134,3.3889734,0.15797990,0.1311540,218.57213,11/5/1990,1950.0,9.41,0.15
Lyka,e,5.13583,343.06852,359.58661,2.3818030,0.26812994,0.2013531,165.15734,11/5/1990,1950.0,11.51,0.25
Lyot,e,11.80471,2.80111,194.16708,3.1504495,0.17625656,0.1283817,249.64454,11/5/1990,1950.0,12.02,0.15
Lysistrata,e,14.31432,257.44891,22.33657,2.5414469,0.24326662,0.0933829,323.81903,11/5/1990,1950.0,10.40,0.25
Lyubov,e,3.28896,161.55934,226.10910,2.2288539,0.29619769,0.1683401,130.93552,11/5/1990,1950.0,13.90,0.25
Lyyli,e,20.53381,160.52222,282.24764,2.5954055,0.23571990,0.4025767,195.74092,11/5/1990,1950.0,12.80,0.15
MEbsuta,f,6:43:56,25:8,2.99,2000
Maartje,e,9.18418,211.79763,94.03042,3.0106768,0.18867219,0.0915177,91.53868,11/5/1990,1950.0,10.00,0.25
Mabella,e,9.51400,202.53283,90.02992,2.6091087,0.23386531,0.1938512,232.39601,11/5/1990,1950.0,9.71,0.15
Machado,e,15.06030,40.51191,286.83138,3.0827403,0.18209527,0.2924437,271.78503,11/5/1990,1950.0,11.80,0.25
Machar,e,8.67215,321.64555,31.08904,2.3553083,0.27266691,0.2565229,344.60516,11/5/1990,1950.0,13.30,0.25
Madeline,e,11.48321,76.09763,313.55929,2.6278301,0.23137059,0.1615387,78.90726,11/5/1990,1950.0,11.34,0.15
Magdalena,e,10.62411,161.13302,305.25054,3.1969434,0.17242556,0.0780817,328.46051,11/5/1990,1950.0,9.27,0.15
Magion,e,25.32487,185.86817,282.67600,2.4510631,0.25684572,0.1134199,346.71944,11/5/1990,1950.0,12.10,0.25
Magnitka,e,5.02946,281.52737,251.13017,2.2326074,0.29545105,0.0961768,133.32164,11/5/1990,1950.0,12.79,0.25
Magnolia,e,5.91825,220.76131,84.14825,2.2390825,0.29417037,0.2012961,187.52296,11/5/1990,1950.0,13.20,0.25
Magnusson,e,4.29051,205.55087,124.60103,2.2659256,0.28895859,0.2013209,302.18795,11/5/1990,1950.0,14.10,0.25
Magnya,e,16.94641,41.05334,330.38531,3.1378753,0.17731707,0.2367302,184.08070,11/5/1990,1950.0,10.80,0.25
Magoeba,e,22.82457,224.69146,339.92403,1.8534286,0.39060724,0.0446447,18.63581,11/5/1990,1950.0,13.18,0.25
Mahler,e,1.90443,100.19381,93.78093,3.1596996,0.17548314,0.1201759,93.70641,11/5/1990,1950.0,12.90,0.25
Maillen,e,1.24499,27.67509,235.55150,3.1541554,0.17594602,0.1081912,286.81286,11/5/1990,1950.0,12.20,0.25
Maja,e,3.04704,7.38355,42.84763,2.6443718,0.22920300,0.1746304,158.61757,11/5/1990,1950.0,9.39,0.15
Majuba,e,9.51623,317.64900,343.71243,2.9401566,0.19550073,0.1699415,20.43385,11/5/1990,1950.0,10.29,0.15
Makarenko,e,11.49603,100.16467,154.07446,3.0189634,0.18789590,0.0528880,238.17125,11/5/1990,1950.0,11.00,0.25
Makhaon,e,12.19590,287.18277,203.52210,5.1566817,0.08416831,0.0611041,53.40674,11/5/1990,1950.0,8.60,0.25
Makharadze,e,2.19130,256.30835,65.01901,2.4598981,0.25546322,0.1891215,75.51730,11/5/1990,1950.0,12.81,0.15
Maklaj,e,8.96516,12.97095,337.88792,3.0320119,0.18668427,0.0198789,118.53185,11/5/1990,1950.0,12.40,0.25
Makover,e,11.25424,85.94788,319.37879,3.1185393,0.17896876,0.1790854,102.59680,11/5/1990,1950.0,10.10,0.25
